ISS (ZVEZDA)            
1 26400U 00037A   26068.70691881  .00007976  00000+0  15510-3 0  9997
2 26400  51.6323  72.2710 0008020 174.6781 185.4294 15.48547200555988
DEMO8 (TENZING)         
1 48951U 21059CA  26068.50149399  .00022523  00000+0  38915-3 0  9998
2 48951  97.7052 254.6062 0007009 356.8203   3.3002 15.50975268261833
